[{"OBJECT_NAME":"STARLINK-3260","OBJECT_ID":"2021-125BB","EPOCH":"2026-03-09T16:05:36.785760","MEAN_MOTION":15.08837295,"ECCENTRICITY":0.0001234,"INCLINATION":53.2169,"RA_OF_ASC_NODE":209.2065,"ARG_OF_PERICENTER":80.6164,"MEAN_ANOMALY":279.4968,"EPHEMERIS_TYPE":0,"CLASSIFICATION_TYPE":"U","NORAD_CAT_ID":50205,"ELEMENT_SET_NO":999,"REV_AT_EPOCH":23715,"BSTAR":2.532015e-6,"MEAN_MOTION_DOT":-2.48e-6,"MEAN_MOTION_DDOT":0},{"OBJECT_NAME":"CZ-6A DEB","OBJECT_ID":"2024-140AAN","EPOCH":"2026-03-09T15:08:07.195776","MEAN_MOTION":15.20547394,"ECCENTRICITY":0.0064261,"INCLINATION":89.3669,"RA_OF_ASC_NODE":306.3092,"ARG_OF_PERICENTER":93.6352,"MEAN_ANOMALY":267.2246,"EPHEMERIS_TYPE":0,"CLASSIFICATION_TYPE":"U","NORAD_CAT_ID":61480,"ELEMENT_SET_NO":999,"REV_AT_EPOCH":8198,"BSTAR":0.0033609,"MEAN_MOTION_DOT":0.00078405,"MEAN_MOTION_DDOT":0}]
